NORAD_CAT_ID,OBJECT_NAME,OBJECT_TYPE,EPOCH,MEAN_MOTION,ECCENTRICITY,INCLINATION,RA_OF_ASC_NODE,ARG_OF_PERICENTER,MEAN_ANOMALY,BSTAR,MEAN_MOTION_DOT,MEAN_MOTION_DDOT,TLE_LINE0,TLE_LINE1,TLE_LINE2,SEMIMAJOR_AXIS,PERIOD,APOGEE,PERIGEE,DECAYED
55936.0,STARLINK-5882,PAYLOAD,2024-04-04 19:33:57,14.98330864,0.0003027,70.0003,239.0066,269.7132,90.368,1.0473e-05,3.2e-07,0.0,0 STARLINK-5882,1 55936U 23037Y   24095.81525169  .00000032  00000-0  10473-4 0  9994,2 55936  70.0003 239.0066 0003027 269.7132  90.3680 14.98330864 59048,6950.19,96.107,574.159,569.951,0.0
55936.0,STARLINK-5882,PAYLOAD,2024-04-05 13:11:26,14.98335253,0.0002946,70.0002,237.1551,265.1581,94.9241,1.789e-05,1.2e-06,0.0,0 STARLINK-5882,1 55936U 23037Y   24096.54960690  .00000120  00000-0  17890-4 0  9995,2 55936  70.0002 237.1551 0002946 265.1581  94.9241 14.98335253 59491,6950.177,96.107,574.089,569.994,0.0
55936.0,STARLINK-5882,PAYLOAD,2024-04-05 14:47:34,14.98334867,0.0003037,70.0005,236.9873,267.9418,92.1394,2.7647e-05,2.37e-06,0.0,0 STARLINK-5882,1 55936U 23037Y   24096.61636693  .00000237  00000-0  27647-4 0  9996,2 55936  70.0005 236.9873 0003037 267.9418  92.1394 14.98334867 59162,6950.178,96.107,574.154,569.932,0.0
55936.0,STARLINK-5882,PAYLOAD,2024-04-05 19:35:57,14.98339355,0.0003033,70.0004,236.4826,267.2588,92.8224,6.3336e-05,6.63e-06,0.0,0 STARLINK-5882,1 55936U 23037Y   24096.81664196  .00000663  00000-0  63336-4 0  9995,2 55936  70.0004 236.4826 0003033 267.2588  92.8224 14.98339355 59190,6950.164,96.106,574.137,569.921,0.0
55936.0,STARLINK-5882,PAYLOAD,2024-04-06 10:01:11,14.98328817,0.0002764,70.003,234.9676,270.796,89.2882,-2.8929e-05,-4.38e-06,0.0,0 STARLINK-5882,1 55936U 23037Y   24097.41749150 -.00000438  00000-0 -28929-4 0  9997,2 55936  70.0030 234.9676 0002764 270.7960  89.2882 14.98328817 59627,6950.197,96.107,573.983,570.141,0.0
55936.0,STARLINK-5882,PAYLOAD,2024-04-07 10:03:12,14.98324749,0.0002594,70.0035,232.4449,258.7946,101.2922,-2.8563e-05,-4.34e-06,0.0,0 STARLINK-5882,1 55936U 23037Y   24098.41889413 -.00000434  00000-0 -28563-4 0  9995,2 55936  70.0035 232.4449 0002594 258.7946 101.2922 14.98324749 59770,6950.209,96.107,573.877,570.271,0.0
55936.0,STARLINK-5882,PAYLOAD,2024-04-07 14:51:36,14.98327896,0.0002681,70.0023,231.9382,266.9398,93.1454,-4.6123e-05,-6.43e-06,0.0,0 STARLINK-5882,1 55936U 23037Y   24098.61917349 -.00000643  00000-0 -46123-4 0  9991,2 55936  70.0023 231.9382 0002681 266.9398  93.1454 14.98327896 59467,6950.199,96.107,573.928,570.201,0.0
55936.0,STARLINK-5882,PAYLOAD,2024-04-08 02:04:32,14.98370664,0.0002927,70.0026,230.76,276.6552,83.4273,-0.00075622,-9.114e-05,0.0,0 STARLINK-5882,1 55936U 23037Y   24099.08648206 -.00009114  00000-0 -75622-3 0  9993,2 55936  70.0026 230.7600 0002927 276.6552  83.4273 14.98370664 59870,6950.067,96.104,573.966,569.898,0.0
55936.0,STARLINK-5882,PAYLOAD,2024-04-08 10:05:13,14.98328439,0.0003046,70.0016,229.9183,271.6039,88.4771,9.0934e-05,9.92e-06,0.0,0 STARLINK-5882,1 55936U 23037Y   24099.42028955  .00000992  00000-0  90934-4 0  9991,2 55936  70.0016 229.9183 0003046 271.6039  88.4771 14.98328439 59920,6950.198,96.107,574.18,569.946,0.0
55936.0,STARLINK-5882,PAYLOAD,2024-04-08 14:53:37,14.9833217,0.0003066,70.0016,229.4132,271.4762,88.6046,9.0742e-05,9.9e-06,0.0,0 STARLINK-5882,1 55936U 23037Y   24099.62056721  .00000990  00000-0  90742-4 0  9990,2 55936  70.0016 229.4132 0003066 271.4762  88.6046 14.98332170 59612,6950.186,96.107,574.182,569.92,0.0
55936.0,STARLINK-5882,PAYLOAD,2024-04-09 10:07:14,14.98327908,0.000311,70.0012,227.3935,271.2455,88.8348,4.683e-05,4.66e-06,0.0,0 STARLINK-5882,1 55936U 23037Y   24100.42169082  .00000466  00000-0  46830-4 0  9993,2 55936  70.0012 227.3935 0003110 271.2455  88.8348 14.98327908 60075,6950.199,96.107,574.226,569.903,0.0
55936.0,STARLINK-5882,PAYLOAD,2024-04-09 14:55:38,14.98331415,0.0003144,70.0008,226.888,270.3164,89.7635,5.1271e-05,5.19e-06,0.0,0 STARLINK-5882,1 55936U 23037Y   24100.62196828  .00000519  00000-0  51271-4 0  9997,2 55936  70.0008 226.8880 0003144 270.3164  89.7635 14.98331415 59768,6950.189,96.107,574.239,569.868,0.0
55936.0,STARLINK-5882,PAYLOAD,2024-04-09 18:07:54,14.98331067,0.0003153,70.0009,226.5513,270.3104,89.7694,4.4934e-05,4.43e-06,0.0,0 STARLINK-5882,1 55936U 23037Y   24100.75548849  .00000443  00000-0  44934-4 0  9999,2 55936  70.0009 226.5513 0003153 270.3104  89.7694 14.98331067 59783,6950.19,96.107,574.246,569.863,0.0
55936.0,STARLINK-5882,PAYLOAD,2024-04-10 10:09:14,14.9833434,0.0003175,70.0002,224.8683,270.2046,89.8749,2.1923e-05,1.69e-06,0.0,0 STARLINK-5882,1 55936U 23037Y   24101.42308535  .00000169  00000-0  21923-4 0  9998,2 55936  70.0002 224.8683 0003175 270.2046  89.8749 14.98334340 60223,6950.179,96.107,574.251,569.838,0.0
55936.0,STARLINK-5882,PAYLOAD,2024-04-10 14:57:38,14.98339295,0.0003148,70.0,224.3634,270.0368,90.043,3.5166e-05,3.27e-06,0.0,0 STARLINK-5882,1 55936U 23037Y   24101.62336104  .00000327  00000-0  35166-4 0  9993,2 55936  70.0000 224.3634 0003148 270.0368  90.0430 14.98339295 59916,6950.164,96.106,574.217,569.841,0.0
55936.0,STARLINK-5882,PAYLOAD,2024-04-10 18:09:54,14.98340289,0.0003128,70.0,224.0267,270.0376,90.0425,4.5328e-05,4.48e-06,0.0,0 STARLINK-5882,1 55936U 23037Y   24101.75687931  .00000448  00000-0  45328-4 0  9999,2 55936  70.0000 224.0267 0003128 270.0376  90.0425 14.98340289 59933,6950.161,96.106,574.2,569.852,0.0
55936.0,STARLINK-5882,PAYLOAD,2024-04-11 10:11:15,14.98324657,0.0002994,70.0011,222.3435,269.8693,90.2123,3.8775e-06,-4.7e-07,0.0,0 STARLINK-5882,1 55936U 23037Y   24102.42448939 -.00000047  00000-0  38775-5 0  9992,2 55936  70.0011 222.3435 0002994 269.8693  90.2123 14.98324657 60379,6950.209,96.107,574.155,569.994,0.0
55936.0,STARLINK-5882,PAYLOAD,2024-04-11 14:59:39,14.98326673,0.0002795,70.0012,221.8388,265.1646,94.9194,3.501e-06,-5.1e-07,0.0,0 STARLINK-5882,1 55936U 23037Y   24102.62476816 -.00000051  00000-0  35010-5 0  9993,2 55936  70.0012 221.8388 0002795 265.1646  94.9194 14.98326673 60062,6950.203,96.107,574.011,570.126,0.0
55936.0,STARLINK-5882,PAYLOAD,2024-04-11 18:11:56,14.98314189,0.0002632,70.002,221.5036,260.9578,99.1283,0.00017196,1.959e-05,0.0,0 STARLINK-5882,1 55936U 23037Y   24102.75829242  .00001959  00000-0  17196-3 0  9992,2 55936  70.0020 221.5036 0002632 260.9578  99.1283 14.98314189 60082,6950.242,96.108,573.936,570.277,0.0
55936.0,STARLINK-5882,PAYLOAD,2024-04-12 11:49:24,14.98332082,0.0003057,70.0013,219.6509,270.5118,89.5691,-2.2129e-05,-3.57e-06,0.0,0 STARLINK-5882,1 55936U 23037Y   24103.49264499 -.00000357  00000-0 -22129-4 0  9997,2 55936  70.0013 219.6509 0003057 270.5118  89.5691 14.98332082 60534,6950.186,96.107,574.176,569.927,0.0
55936.0,STARLINK-5882,PAYLOAD,2024-04-12 15:01:40,14.98360109,0.0003138,70.0013,219.3143,268.8104,91.2695,-0.00048292,-5.855e-05,0.0,0 STARLINK-5882,1 55936U 23037Y   24103.62615921 -.00005855  00000-0 -48292-3 0  9998,2 55936  70.0013 219.3143 0003138 268.8104  91.2695 14.98360109 60557,6950.1,96.105,574.146,569.784,0.0
55936.0,STARLINK-5882,PAYLOAD,2024-04-13 13:27:33,14.98326665,0.0003108,70.001,216.9581,266.9979,93.0825,3.8868e-06,-4.7e-07,0.0,0 STARLINK-5882,1 55936U 23037Y   24104.56080782 -.00000047  00000-0  38868-5 0  9990,2 55936  70.0010 216.9581 0003108 266.9979  93.0825 14.98326665 60698,6950.203,96.107,574.228,569.908,0.0
55936.0,STARLINK-5882,PAYLOAD,2024-04-13 16:39:49,14.98328817,0.0003099,70.001,216.6215,266.8659,93.2145,2.6487e-05,2.23e-06,0.0,0 STARLINK-5882,1 55936U 23037Y   24104.69432595  .00000223  00000-0  26487-4 0  9995,2 55936  70.0010 216.6215 0003099 266.8659  93.2145 14.98328817 60375,6950.197,96.107,574.215,569.908,0.0
55936.0,STARLINK-5882,PAYLOAD,2024-04-14 16:41:50,14.98332815,0.0002766,70.0022,214.0983,256.9071,103.1779,4.7796e-05,4.77e-06,0.0,0 STARLINK-5882,1 55936U 23037Y   24105.69572282  .00000477  00000-0  47796-4 0  9991,2 55936  70.0022 214.0983 0002766 256.9071 103.1779 14.98332815 60861,6950.184,96.107,573.972,570.127,0.0
55936.0,STARLINK-5882,PAYLOAD,2024-04-15 13:31:35,14.9833207,0.0002762,70.0023,211.9109,258.5662,101.5187,5.0253e-05,5.07e-06,0.0,0 STARLINK-5882,1 55936U 23037Y   24106.56360151  .00000507  00000-0  50253-4 0  9994,2 55936  70.0023 211.9109 0002762 258.5662 101.5187 14.98332070 60653,6950.186,96.107,573.971,570.132,0.0
55936.0,STARLINK-5882,PAYLOAD,2024-04-16 13:33:35,14.98336416,0.0002819,70.0015,209.3839,271.3881,88.6955,5.6805e-05,5.85e-06,0.0,0 STARLINK-5882,1 55936U 23037Y   24107.56499824  .00000585  00000-0  56805-4 0  9990,2 55936  70.0015 209.3839 0002819 271.3881  88.6955 14.98336416 61145,6950.173,96.107,573.997,570.079,0.0
55936.0,STARLINK-5882,PAYLOAD,2024-04-16 16:45:51,14.98339597,0.0002721,70.0021,209.0499,263.6516,96.4333,3.9736e-05,3.81e-06,0.0,0 STARLINK-5882,1 55936U 23037Y   24107.69851484  .00000381  00000-0  39736-4 0  9996,2 55936  70.0021 209.0499 0002721 263.6516  96.4333 14.98339597 60826,6950.163,96.106,573.919,570.137,0.0
55936.0,STARLINK-5882,PAYLOAD,2024-04-17 10:23:21,14.98324784,0.000267,70.0031,207.1988,244.5616,115.5267,-0.0001251,-1.585e-05,0.0,0 STARLINK-5882,1 55936U 23037Y   24108.43288847 -.00001585  00000-0 -12510-3 0  9995,2 55936  70.0031 207.1988 0002670 244.5616 115.5267 14.98324784 61272,6950.209,96.107,573.93,570.218,0.0
55936.0,STARLINK-5882,PAYLOAD,2024-04-17 13:35:37,14.98322551,0.0002787,70.0017,206.8597,259.4315,100.653,-0.00013257,-1.674e-05,0.0,0 STARLINK-5882,1 55936U 23037Y   24108.56641198 -.00001674  00000-0 -13257-3 0  9999,2 55936  70.0017 206.8597 0002787 259.4315 100.6530 14.98322551 60950,6950.216,96.107,574.018,570.144,0.0
55936.0,STARLINK-5882,PAYLOAD,2024-04-17 16:47:53,14.98327004,0.0002871,70.0017,206.5232,263.9184,96.1648,-8.0151e-05,-1.049e-05,0.0,0 STARLINK-5882,1 55936U 23037Y   24108.69992827 -.00001049  00000-0 -80151-4 0  9995,2 55936  70.0017 206.5232 0002871 263.9184  96.1648 14.98327004 60970,6950.202,96.107,574.063,570.072,0.0
